OBJECT_NAME,OBJECT_ID,EPOCH,MEAN_MOTION,ECCENTRICITY,INCLINATION,RA_OF_ASC_NODE,ARG_OF_PERICENTER,MEAN_ANOMALY,EPHEMERIS_TYPE,CLASSIFICATION_TYPE,NORAD_CAT_ID,ELEMENT_SET_NO,REV_AT_EPOCH,BSTAR,MEAN_MOTION_DOT,MEAN_MOTION_DDOT
KUZGTU 1 (RS47S),2023-091AV,2026-06-04T01:58:16.815648,15.29543001,.0012168,97.5065,219.4315,138.4350,221.7817,0,U,57217,999,16237,.47282E-3,.13501E-3,0
SONATE-2,2024-043Q,2026-06-03T23:22:02.781120,15.57700323,.0006326,97.5529,304.5700,241.9322,118.1294,0,U,59112,999,12583,.52779E-3,.39146E-3,0
MESAT1,2024-125G,2026-06-03T15:46:09.429312,15.61704825,.00082975,97.2307,11.8448,258.2487,101.7841,0,U,60209,999,10745,.63848348E-3,.55298E-3,0
OOV-CUBE (TUBSAT-30),2024-128F,2026-06-03T21:07:55.384032,15.02709877,.0046281,61.9958,271.9701,130.8013,229.7107,0,U,60240,999,10411,.23717E-3,.3041E-4,0
COLIBRI-S (RS67S),2024-199M,2026-06-04T03:05:34.608192,15.47158833,.0007161,97.3007,28.8681,339.0361,21.0594,0,U,61746,999,13539,.50347E-3,.25536E-3,0
HORS 3 (RS81S),2024-199U,2026-06-04T03:37:20.000352,15.54041757,.0005029,97.2991,30.7398,349.5029,10.6118,0,U,61753,999,13553,.61021E-3,.39563E-3,0
HORS 4 (RS82S),2024-199V,2026-06-04T03:35:20.270688,15.58432073,.0003831,97.2938,31.8590,342.5185,17.5938,0,U,61754,999,13561,.73748E-3,.56351E-3,0
ARCTICSAT 1 (RS74S),2024-199AD,2026-06-04T01:02:46.561344,16.00815121,.0005603,97.2861,38.2010,197.5172,162.5915,0,U,61762,999,13601,.12212E-2,.64706E-2,.19277E-3
SIT-2086,2024-199AF,2026-06-04T04:16:00.739776,15.52152474,.0004998,97.2950,31.2887,323.3989,36.6921,0,U,61764,999,13241,.64631E-3,.39149E-3,0
HYPERVIEW 1G (RS66S),2024-199AP,2026-06-04T03:47:45.087936,15.72487095,.0002396,97.2896,34.2507,326.6409,33.4703,0,U,61772,999,13262,.1034E-2,.139568E-2,0
ALTAIR (RS65S),2024-199AW,2026-06-04T03:43:49.772352,15.36748679,.0012511,97.3039,24.5937,1.7974,358.3313,0,U,61779,999,13511,.31451E-3,.11243E-3,0
ASRTU-1 (AO-123),2024-199AY,2026-06-04T03:10:19.920000,15.35478262,.0013742,97.3011,23.9213,3.6245,356.5095,0,U,61781,999,13192,.25688E-3,.8803E-4,0
SAMSAT-IONOSPHERE (RS75S),2024-199BB,2026-06-04T03:24:17.925696,15.56448253,.0006909,97.2959,30.7326,342.3942,17.7072,0,U,61784,999,13553,.72307E-3,.51318E-3,0
RTU MIREA 1 (RS51S),2024-199BC,2026-06-04T03:07:05.151072,15.59623882,.0006319,97.2948,31.4876,338.3119,21.7869,0,U,61785,999,13243,.82182E-3,.65806E-3,0
TEVEL2-4,2025-052D,2026-06-02T05:56:32.581248,15.34050425,.00040908,97.3927,49.6197,133.0862,227.0724,0,U,63213,999,6782,.60334383E-3,.19833E-3,0
TEVEL2-5,2025-052E,2026-06-03T15:16:24.127104,15.33944349,.0004039,97.3916,50.9614,130.1667,229.9930,0,U,63214,999,6803,.6102E-3,.19992E-3,0
TEVEL2-6,2025-052F,2026-06-03T15:33:41.668416,15.33906822,.0004181,97.3918,50.9581,130.1242,230.0368,0,U,63215,999,6803,.61519E-3,.20133E-3,0
TEVEL2-1,2025-052H,2026-06-02T16:39:16.232832,15.33355434,.0003899,97.3886,49.6443,141.0246,219.1278,0,U,63217,999,6787,.61840095E-3,.19888E-3,0
TEVEL2-3,2025-052J,2026-06-03T05:04:02.160768,15.33427572,.0003877,97.3892,50.1814,141.5958,218.5561,0,U,63218,999,6795,.61001E-3,.19661E-3,0
TEVEL2-2,2025-052K,2026-06-03T14:35:25.630656,15.33398099,.0003813,97.3889,50.5598,141.3409,218.8107,0,U,63219,999,6801,.63028E-3,.203E-3,0
TEVEL2-9,2025-052AD,2026-06-03T05:47:26.866752,15.31447810,.0006417,97.3950,49.5986,171.9085,188.2261,0,U,63237,999,6789,.59759E-3,.18105E-3,0
TEVEL2-7,2025-052AE,2026-06-03T14:33:06.588864,15.31176236,.00064176,97.3955,49.8841,171.2563,188.8791,0,U,63238,999,6794,.58397265E-3,.17541E-3,0
TEVEL2-8,2025-052AF,2026-06-03T22:35:19.148640,15.31169698,.0006473,97.3952,50.1954,170.8239,189.3121,0,U,63239,999,6799,.57066E-3,.17135E-3,0
INNOSAT 16 (RS92S7),2025-155C,2026-06-04T03:28:12.182016,15.25312239,.0009058,97.4562,122.3162,224.0228,136.0289,0,U,64878,999,7868,.26095E-3,.6507E-4,0
GEOSCAN 6 (RS92S6),2025-155D,2026-06-04T04:00:19.792800,15.29894767,.0006603,97.4556,123.6717,208.7783,151.3094,0,U,64879,999,7877,.38676E-3,.1113E-3,0
GEOSCAN 1 (RS92S1),2025-155E,2026-06-04T04:11:01.597920,15.30471702,.0006503,97.4552,123.8159,208.4883,151.6003,0,U,64880,999,7878,.42212E-3,.12375E-3,0
239ALFEROV (RS61S),2025-155F,2026-06-04T03:53:34.808352,15.32576859,.0006122,97.4554,124.3223,204.8505,155.2443,0,U,64881,999,7881,.47864E-3,.14998E-3,0
GEOSCAN 2 (RS92S2),2025-155Q,2026-06-04T04:05:15.216000,15.30743539,.0006381,97.4551,123.9593,192.1911,167.9177,0,U,64890,999,7879,.40798E-3,.12058E-3,0
GEOSCAN 5 (RS92S5),2025-155R,2026-06-04T03:41:40.135200,15.32893298,.0004798,97.4545,124.4464,208.1658,151.9325,0,U,64891,999,7882,.49996E-3,.15825E-3,0
GEOSCAN 4 (RS92S4),2025-155S,2026-06-04T03:20:44.619648,15.33040540,.0004843,97.4549,124.4765,209.2642,150.8330,0,U,64892,999,7882,.51755E-3,.16462E-3,0
