KUZGTU 1 (RS47S)        
1 57217U 23091AV  26155.08213907  .00013501  00000+0  47282-3 0  9991
2 57217  97.5065 219.4315 0012168 138.4350 221.7817 15.29543001162370
SONATE-2                
1 59112U 24043Q   26154.97364330  .00039146  00000+0  52779-3 0  9999
2 59112  97.5529 304.5700 0006326 241.9322 118.1294 15.57700323125834
MESAT1                  
1 60209U 24125G   26154.65705358  .00055298  00000+0  63848-3 0  9998
2 60209  97.2307  11.8448 0008297 258.2487 101.7841 15.61704825107453
OOV-CUBE (TUBSAT-30)    
1 60240U 24128F   26154.88050213  .00003041  00000+0  23717-3 0  9994
2 60240  61.9958 271.9701 0046281 130.8013 229.7107 15.02709877104117
COLIBRI-S (RS67S)       
1 61746U 24199M   26155.12887278  .00025536  00000+0  50347-3 0  9993
2 61746  97.3007  28.8681 0007161 339.0361  21.0594 15.47158833135392
HORS 3 (RS81S)          
1 61753U 24199U   26155.15092593  .00039563  00000+0  61021-3 0  9998
2 61753  97.2991  30.7398 0005029 349.5029  10.6118 15.54041757135532
HORS 4 (RS82S)          
1 61754U 24199V   26155.14954017  .00056351  00000+0  73748-3 0  9999
2 61754  97.2938  31.8590 0003831 342.5185  17.5938 15.58432073135619
ARCTICSAT 1 (RS74S)     
1 61762U 24199AD  26155.04359446  .00647060  19277-3  12212-2 0  9993
2 61762  97.2861  38.2010 0005603 197.5172 162.5915 16.00815121136012
SIT-2086                
1 61764U 24199AF  26155.17778634  .00039149  00000+0  64631-3 0  9999
2 61764  97.2950  31.2887 0004998 323.3989  36.6921 15.52152474132418
HYPERVIEW 1G (RS66S)    
1 61772U 24199AP  26155.15816074  .00139568  00000+0  10340-2 0  9990
2 61772  97.2896  34.2507 0002396 326.6409  33.4703 15.72487095132629
ALTAIR (RS65S)          
1 61779U 24199AW  26155.15543718  .00011243  00000+0  31451-3 0  9995
2 61779  97.3039  24.5937 0012511   1.7974 358.3313 15.36748679135114
ASRTU-1 (AO-123)        
1 61781U 24199AY  26155.13217500  .00008803  00000+0  25688-3 0  9996
2 61781  97.3011  23.9213 0013742   3.6245 356.5095 15.35478262131925
SAMSAT-IONOSPHERE (RS7*)
1 61784U 24199BB  26155.14187414  .00051318  00000+0  72307-3 0  9999
2 61784  97.2959  30.7326 0006909 342.3942  17.7072 15.56448253135535
RTU MIREA 1 (RS51S)     
1 61785U 24199BC  26155.12992073  .00065806  00000+0  82182-3 0  9992
2 61785  97.2948  31.4876 0006319 338.3119  21.7869 15.59623882132439
TEVEL2-4                
1 63213U 25052D   26153.24759932  .00019833  00000+0  60334-3 0  9999
2 63213  97.3927  49.6197 0004090 133.0862 227.0724 15.34050425 67822
TEVEL2-5                
1 63214U 25052E   26154.63639036  .00019992  00000+0  61020-3 0  9995
2 63214  97.3916  50.9614 0004039 130.1667 229.9930 15.33944349 68034
TEVEL2-6                
1 63215U 25052F   26154.64839894  .00020133  00000+0  61519-3 0  9993
2 63215  97.3918  50.9581 0004181 130.1242 230.0368 15.33906822 68039
TEVEL2-1                
1 63217U 25052H   26153.69393788  .00019888  00000+0  61840-3 0  9998
2 63217  97.3886  49.6443 0003899 141.0246 219.1278 15.33355434 67873
TEVEL2-3                
1 63218U 25052J   26154.21113612  .00019661  00000+0  61001-3 0  9992
2 63218  97.3892  50.1814 0003877 141.5958 218.5561 15.33427572 67951
TEVEL2-2                
1 63219U 25052K   26154.60793554  .00020300  00000+0  63028-3 0  9998
2 63219  97.3889  50.5598 0003813 141.3409 218.8107 15.33398099 68018
TEVEL2-9                
1 63237U 25052AD  26154.24128318  .00018105  00000+0  59759-3 0  9994
2 63237  97.3950  49.5986 0006417 171.9085 188.2261 15.31447810 67898
TEVEL2-7                
1 63238U 25052AE  26154.60632626  .00017541  00000+0  58397-3 0  9997
2 63238  97.3955  49.8841 0006417 171.2563 188.8791 15.31176236 67942
TEVEL2-8                
1 63239U 25052AF  26154.94119385  .00017135  00000+0  57066-3 0  9998
2 63239  97.3952  50.1954 0006473 170.8239 189.3121 15.31169698 67999
INNOSAT 16 (RS92S7)     
1 64878U 25155C   26155.14458544  .00006507  00000+0  26095-3 0  9997
2 64878  97.4562 122.3162 0009058 224.0228 136.0289 15.25312239 78688
GEOSCAN 6 (RS92S6)      
1 64879U 25155D   26155.16689575  .00011130  00000+0  38676-3 0  9996
2 64879  97.4556 123.6717 0006603 208.7783 151.3094 15.29894767 78779
GEOSCAN 1 (RS92S1)      
1 64880U 25155E   26155.17432405  .00012375  00000+0  42212-3 0  9990
2 64880  97.4552 123.8159 0006503 208.4883 151.6003 15.30471702 78782
239ALFEROV (RS61S)      
1 64881U 25155F   26155.16220843  .00014998  00000+0  47864-3 0  9992
2 64881  97.4554 124.3223 0006122 204.8505 155.2443 15.32576859 78814
GEOSCAN 2 (RS92S2)      
1 64890U 25155Q   26155.17031500  .00012058  00000+0  40798-3 0  9997
2 64890  97.4551 123.9593 0006381 192.1911 167.9177 15.30743539 78793
GEOSCAN 5 (RS92S5)      
1 64891U 25155R   26155.15393675  .00015825  00000+0  49996-3 0  9994
2 64891  97.4545 124.4464 0004798 208.1658 151.9325 15.32893298 78828
GEOSCAN 4 (RS92S4)      
1 64892U 25155S   26155.13940532  .00016462  00000+0  51755-3 0  9997
2 64892  97.4549 124.4765 0004843 209.2642 150.8330 15.33040540 78822
